0 COSMOS 2251 DEB
1 35964U 93036AVE 13286.22276855  .00072909  00000-0  37420-2 0  3534
2 35964 073.9163 245.4627 0053956 085.2104 336.9765 15.14880585230195
0 COSMOS 2251 DEB
1 35964U 93036AVE 13291.17393781  .00113041  00000-0  56056-2 0  3542
2 35964 073.9153 235.0770 0053632 074.7917 346.3584 15.15908461230946
0 COSMOS 2251 DEB
1 35964U 93036AVE 13292.81801498  .00110074  00000-0  54112-2 0  3558
2 35964 073.9166 231.6329 0053345 071.6754 318.8097 15.16237670231186
0 COSMOS 2251 DEB
1 35964U 93036AVE 13294.79719771  .00134669  00000-0  65234-2 0  3563
2 35964 073.9153 227.4769 0053171 067.7882 322.9225 15.16646001231482
